CUBEBUG-2 (LO-74)       
1 39440U 13066AA  26193.85098882  .00001863  00000+0  17551-3 0  9994
2 39440  97.8909 142.9428 0055957 303.3134  56.2734 14.93957370680821
FUNCUBE-1 (AO-73)       
1 39444U 13066AE  26192.91261323  .00003917  00000+0  24262-3 0  9995
2 39444  97.8287 164.8814 0037972 118.2418 242.2652 15.09793381683390
UWE-3                   
1 39446U 13066AG  26193.81399014  .00001937  00000+0  16916-3 0  9993
2 39446  97.8701 150.0656 0047510 232.8178 126.8701 14.97190018681416
UNISAT-6                
1 40012U 14033C   26193.41236756  .00001198  00000+0  13315-3 0  9997
2 40012  97.7904 345.6857 0044407 347.0654  12.9420 14.88359612649915
DUCHIFAT-1              
1 40021U 14033M   26193.68571963  .00110396  00000+0  89146-3 0  9994
2 40021  98.0440 256.5455 0002165 257.9613 102.1405 15.70510170659744
QB50P1                  
1 40025U 14033R   26193.52077436  .00005256  00000+0  25721-3 0  9994
2 40025  98.0964 206.4495 0010219 132.7489 227.4606 15.18640557656877
LILACSAT-2              
1 40908U 15049K   26193.87102991  .00013885  00000+0  22957-3 0  9990
2 40908  97.4629 231.6990 0008281 148.3423 211.8329 15.52304289599732
FOX-1A (AO-85)          
1 40967U 15058D   26193.43757766  .00001646  00000+0  15569-3 0  9996
2 40967  64.7723 200.5056 0132136  46.8579 314.3491 14.91077888117333
CAS-2T & KS-1Q          
1 41847U 16066G   26193.79655213  .00000636  00000+0  97279-4 0  9994
2 41847  98.3814 269.2397 0342367  52.0250 311.1348 14.44767499508498
RADFXSAT (FOX-1B)       
1 43017U 17073E   26193.60594825  .00003412  00000+0  15083-3 0  9992
2 43017  97.4674  60.3031 0148120 240.5020 118.1370 15.13039278469230
DIWATA-2B               
1 43678U 18084H   26193.84371975  .00001265  00000+0  10534-3 0  9993
2 43678  98.1219  31.1757 0012966  91.6099 268.6609 15.00557947420064
ES'HAIL 2               
1 43700U 18090A   26193.78864200  .00000000  00000+0  00000+0 0  9996
2 43700   0.0292  50.9048 0002219 109.7092  79.7680  1.00269701 27931
FOX-1CLIFF (AO-95)      
1 43770U 18099N   26193.70025572  .00006951  00000+0  26300-3 0  9991
2 43770  97.4379 253.8593 0007082 250.2721 109.7754 15.27240564417116
ITASAT                  
1 43786U 18099AE  26193.70925475  .00003672  00000+0  17667-3 0  9992
2 43786  97.4019 244.7142 0010781 260.4139  99.5878 15.19362966416786
JY1SAT (JO-97)          
1 43803U 18099AX  26192.68722269  .00009972  00000+0  30109-3 0  9999
2 43803  97.4124 255.6172 0006517 168.9842 191.1545 15.34443331417382
UWE-4                   
1 43880U 18111E   26193.76628622  .00027634  00000+0  53442-3 0  9997
2 43880  97.5844 123.3656 0005747 204.5147 155.5830 15.47716069414736
TIANYAN 01              
1 44881U 19093C   26193.82511174  .00000790  00000+0  95095-4 0  9994
2 44881  97.7527 265.4309 0013794   9.3515 350.7955 14.86559235355229
RS-44 & BREEZE-KM R/B   
1 44909U 19096E   26193.72663766  .00000000  00000+0 -52822-4 0  9998
2 44909  82.5240 322.7342 0218550  84.7372 277.8625 12.79748936305612
SALSAT                  
1 46495U 20068K   26192.54062004  .00004447  00000+0  15528-3 0  9997
2 46495  97.8855 197.0941 0008823 206.5203 153.5586 15.30139435319080
XW-3 (CAS-9)            
1 50466U 21131B   26193.87833281  .00000165  00000+0  64688-4 0  9997
2 50466  98.4986 286.1297 0004723  36.6987 323.4525 14.41380195238819
GREENCUBE (IO-117)      
1 53109U 22080E   26193.70867103 -.00000003  00000+0  00000+0 0  9995
2 53109  70.1415 289.3709 0009030 284.1311  75.8345  6.42583319 93700
UMKA 1 (RS40S)          
1 57172U 23091G   26193.81768958  .00003624  00000+0  16575-3 0  9991
2 57172  97.5041 252.4186 0013269  37.3812 322.8344 15.21105920167908
CUBESX-HSE 3 (RS42S)    
1 57178U 23091N   26193.85084250  .00009111  00000+0  29841-3 0  9994
2 57178  97.5086 259.7712 0009913  10.4402 349.7043 15.31849841168358
MONITOR-3 (RS58S)       
1 57180U 23091Q   26193.80207213  .00007012  00000+0  25633-3 0  9991
2 57180  97.5077 257.4425 0011260  18.1675 341.9964 15.28345127168206
MONITOR-4 (RS57S)       
1 57182U 23091S   26193.84517197  .00007016  00000+0  25580-3 0  9997
2 57182  97.5070 257.4585 0011242  18.2818 341.8823 15.28431934168214
MONITOR-2 (RS39S)       
1 57184U 23091U   26193.80571249  .00002859  00000+0  13919-3 0  9996
2 57184  97.5063 251.9244 0011627  31.8252 328.3683 15.19141930167845
SVYATOBOR 1 (RS60S)     
1 57187U 23091X   26193.81544272  .00005636  00000+0  21506-3 0  9993
2 57187  97.5083 257.7792 0008986  13.0410 347.1060 15.27039661168221
VIZARD-METEO (RS38S)    
1 57189U 23091Z   26193.80802076  .00011594  00000+0  32417-3 0  9996
2 57189  97.5087 263.8191 0005879 349.6217  10.4905 15.36827751168626
POLYTECH-UNIVERSE 3 (R*)
1 57191U 23091AB  26193.82942954  .00003233  00000+0  15573-3 0  9996
2 57191  97.5037 251.4521 0016263  45.4959 314.7602 15.19354217167847
UTMN 2 (RS27S)          
1 57203U 23091AP  26193.85458743  .00008877  00000+0  28371-3 0  9990
2 57203  97.5081 261.4400 0006961 358.9932   1.1295 15.32668115168479
