OBJECT_NAME,OBJECT_ID,EPOCH,MEAN_MOTION,ECCENTRICITY,INCLINATION,RA_OF_ASC_NODE,ARG_OF_PERICENTER,MEAN_ANOMALY,EPHEMERIS_TYPE,CLASSIFICATION_TYPE,NORAD_CAT_ID,ELEMENT_SET_NO,REV_AT_EPOCH,BSTAR,MEAN_MOTION_DOT,MEAN_MOTION_DDOT
CUBEBUG-2 (LO-74),2013-066AA,2026-07-12T20:25:25.434048,14.93957370,.0055957,97.8909,142.9428,303.3134,56.2734,0,U,39440,999,68082,.17551E-3,.1863E-4,0
FUNCUBE-1 (AO-73),2013-066AE,2026-07-11T21:54:09.783072,15.09793381,.0037972,97.8287,164.8814,118.2418,242.2652,0,U,39444,999,68339,.24262E-3,.3917E-4,0
UWE-3,2013-066AG,2026-07-12T19:32:08.748096,14.97190018,.004751,97.8701,150.0656,232.8178,126.8701,0,U,39446,999,68141,.16916E-3,.1937E-4,0
UNISAT-6,2014-033C,2026-07-12T09:53:48.557184,14.88359612,.00444079,97.7904,345.6857,347.0654,12.9420,0,U,40012,999,64991,.13315126E-3,.1198E-4,0
DUCHIFAT-1,2014-033M,2026-07-12T16:27:26.176032,15.70510170,.0002165,98.0440,256.5455,257.9613,102.1405,0,U,40021,999,65974,.89146E-3,.110396E-2,0
QB50P1,2014-033R,2026-07-12T12:29:54.904704,15.18640557,.00102199,98.0964,206.4495,132.7489,227.4606,0,U,40025,999,65687,.25721199E-3,.5256E-4,0
LILACSAT-2,2015-049K,2026-07-12T20:54:16.984224,15.52304289,.0008281,97.4629,231.6990,148.3423,211.8329,0,U,40908,999,59973,.22957E-3,.13885E-3,0
FOX-1A (AO-85),2015-058D,2026-07-12T10:30:06.709824,14.91077888,.01321369,64.7723,200.5056,46.8579,314.3491,0,U,40967,999,11733,.15568718E-3,.1646E-4,0
CAS-2T & KS-1Q,2016-066G,2026-07-12T19:07:02.104032,14.44767499,.0342367,98.3814,269.2397,52.0250,311.1348,0,U,41847,999,50849,.97279E-4,.636E-5,0
RADFXSAT (FOX-1B),2017-073E,2026-07-12T14:32:33.928800,15.13039278,.014812,97.4674,60.3031,240.5020,118.1370,0,U,43017,999,46923,.15083E-3,.3412E-4,0
DIWATA-2B,2018-084H,2026-07-12T20:14:57.386400,15.00557947,.0012966,98.1219,31.1757,91.6099,268.6609,0,U,43678,999,42006,.10534E-3,.1265E-4,0
ES'HAIL 2,2018-090A,2026-07-12T18:55:38.668800,1.00269701,.0002219,0.0292,50.9048,109.7092,79.7680,0,U,43700,999,2793,0,0,0
FOX-1CLIFF (AO-95),2018-099N,2026-07-12T16:48:22.094208,15.27240564,.0007082,97.4379,253.8593,250.2721,109.7754,0,U,43770,999,41711,.263E-3,.6951E-4,0
ITASAT,2018-099AE,2026-07-12T17:01:19.610400,15.19362966,.0010781,97.4019,244.7142,260.4139,99.5878,0,U,43786,999,41678,.17667E-3,.3672E-4,0
JY1SAT (JO-97),2018-099AX,2026-07-11T16:29:36.040416,15.34443331,.00065178,97.4124,255.6172,168.9842,191.1545,0,U,43803,999,41738,.301087E-3,.9972E-4,0
UWE-4,2018-111E,2026-07-12T18:23:27.129408,15.47716069,.0005747,97.5844,123.3656,204.5147,155.5830,0,U,43880,999,41473,.53442E-3,.27634E-3,0
TIANYAN 01,2019-093C,2026-07-12T19:48:09.654336,14.86559235,.0013794,97.7527,265.4309,9.3515,350.7955,0,U,44881,999,35522,.95095E-4,.79E-5,0
RS-44 & BREEZE-KM R/B,2019-096E,2026-07-12T17:26:21.493824,12.79748936,.021855,82.5240,322.7342,84.7372,277.8625,0,U,44909,999,30561,-.52822E-4,0,0
SALSAT,2020-068K,2026-07-11T12:58:29.571456,15.30139435,.00088233,97.8855,197.0941,206.5203,153.5586,0,U,46495,999,31908,.15528118E-3,.4447E-4,0
XW-3 (CAS-9),2021-131B,2026-07-12T21:04:47.954784,14.41380195,.0004723,98.4986,286.1297,36.6987,323.4525,0,U,50466,999,23881,.64688E-4,.165E-5,0
GREENCUBE (IO-117),2022-080E,2026-07-12T17:00:29.176992,6.42583319,.000903,70.1415,289.3709,284.1311,75.8345,0,U,53109,999,9370,0,-.3E-7,0
UMKA 1 (RS40S),2023-091G,2026-07-12T19:37:28.379712,15.21105920,.0013269,97.5041,252.4186,37.3812,322.8344,0,U,57172,999,16790,.16575E-3,.3624E-4,0
CUBESX-HSE 3 (RS42S),2023-091N,2026-07-12T20:25:12.792000,15.31849841,.0009913,97.5086,259.7712,10.4402,349.7043,0,U,57178,999,16835,.29841E-3,.9111E-4,0
MONITOR-3 (RS58S),2023-091Q,2026-07-12T19:14:59.032032,15.28345127,.001126,97.5077,257.4425,18.1675,341.9964,0,U,57180,999,16820,.25633E-3,.7012E-4,0
MONITOR-4 (RS57S),2023-091S,2026-07-12T20:17:02.858208,15.28431934,.0011242,97.5070,257.4585,18.2818,341.8823,0,U,57182,999,16821,.2558E-3,.7016E-4,0
MONITOR-2 (RS39S),2023-091U,2026-07-12T19:20:13.559136,15.19141930,.0011627,97.5063,251.9244,31.8252,328.3683,0,U,57184,999,16784,.13919E-3,.2859E-4,0
SVYATOBOR 1 (RS60S),2023-091X,2026-07-12T19:34:14.251008,15.27039661,.0008986,97.5083,257.7792,13.0410,347.1060,0,U,57187,999,16822,.21506E-3,.5636E-4,0
VIZARD-METEO (RS38S),2023-091Z,2026-07-12T19:23:32.993664,15.36827751,.0005879,97.5087,263.8191,349.6217,10.4905,0,U,57189,999,16862,.32417E-3,.11594E-3,0
POLYTECH-UNIVERSE 3 (RS46S),2023-091AB,2026-07-12T19:54:22.712256,15.19354217,.0016263,97.5037,251.4521,45.4959,314.7602,0,U,57191,999,16784,.15573E-3,.3233E-4,0
UTMN 2 (RS27S),2023-091AP,2026-07-12T20:30:36.353952,15.32668115,.0006961,97.5081,261.4400,358.9932,1.1295,0,U,57203,999,16847,.28371E-3,.8877E-4,0
